NORAD_CAT_ID,OBJECT_NAME,OBJECT_TYPE,EPOCH,MEAN_MOTION,ECCENTRICITY,INCLINATION,RA_OF_ASC_NODE,ARG_OF_PERICENTER,MEAN_ANOMALY,BSTAR,MEAN_MOTION_DOT,MEAN_MOTION_DDOT,TLE_LINE0,TLE_LINE1,TLE_LINE2,SEMIMAJOR_AXIS,PERIOD,APOGEE,PERIGEE,DECAYED
53724.0,STARLINK-4663,PAYLOAD,2023-09-30 22:34:37,15.08840034,0.0001559,53.2155,292.6437,87.3485,272.7685,6.462e-06,-1.85e-06,0.0,0 STARLINK-4663,1 53724U 22107AA  23273.94071577 -.00000185  00000-0  64620-5 0  9998,2 53724  53.2155 292.6437 0001559  87.3485 272.7685 15.08840034 59488,6917.88,95.438,540.824,538.667,0.0
53724.0,STARLINK-4663,PAYLOAD,2023-10-01 08:06:56,15.08841452,0.0001593,53.2156,290.8593,90.0003,270.1172,-2.9757e-05,-7.62e-06,0.0,0 STARLINK-4663,1 53724U 22107AA  23274.33815429 -.00000762  00000-0 -29757-4 0  9997,2 53724  53.2156 290.8593 0001593  90.0003 270.1172 15.08841452 60005,6917.876,95.437,540.843,538.639,0.0
53724.0,STARLINK-4663,PAYLOAD,2023-10-01 17:39:15,15.08837702,0.0001596,53.2155,289.0753,90.5701,269.5474,-6.9873e-05,-1.4e-05,0.0,0 STARLINK-4663,1 53724U 22107AA  23274.73559612 -.00001400  00000-0 -69873-4 0  9993,2 53724  53.2155 289.0753 0001596  90.5701 269.5474 15.08837702 60061,6917.887,95.438,540.857,538.648,0.0
53724.0,STARLINK-4663,PAYLOAD,2023-10-02 01:36:11,15.08829928,0.0001655,53.2167,287.59,94.2741,265.844,-0.00011717,-2.152e-05,0.0,0 STARLINK-4663,1 53724U 22107AA  23275.06680153 -.00002152  00000-0 -11717-3 0  9993,2 53724  53.2167 287.5900 0001655  94.2741 265.8440 15.08829928 59658,6917.911,95.438,540.921,538.631,0.0
53724.0,STARLINK-4663,PAYLOAD,2023-10-02 07:57:44,15.08832979,0.000161,53.2176,286.4009,93.8097,266.3079,-3.2134e-05,-7.99e-06,0.0,0 STARLINK-4663,1 53724U 22107AA  23275.33176548 -.00000799  00000-0 -32134-4 0  9993,2 53724  53.2176 286.4009 0001610  93.8097 266.3079 15.08832979 60157,6917.902,95.438,540.881,538.653,0.0
53724.0,STARLINK-4663,PAYLOAD,2023-10-03 04:37:44,15.08834829,0.0001707,53.2172,282.5347,99.5212,260.5974,0.0002263,3.315e-05,0.0,0 STARLINK-4663,1 53724U 22107AA  23276.19288134  .00003315  00000-0  22630-3 0  9997,2 53724  53.2172 282.5347 0001707  99.5212 260.5974 15.08834829 59822,6917.896,95.438,540.942,538.58,0.0
53724.0,STARLINK-4663,PAYLOAD,2023-10-03 10:59:18,15.08801792,0.0002051,53.2173,281.345,97.7999,262.3226,0.00097204,0.000152,0.0,0 STARLINK-4663,1 53724U 22107AA  23276.45785120  .00015200  00000-0  97204-3 0  9998,2 53724  53.2173 281.3450 0002051  97.7999 262.3226 15.08801792 59867,6917.997,95.44,541.281,538.443,0.0
53724.0,STARLINK-4663,PAYLOAD,2023-10-04 01:17:46,15.08833561,0.0002065,53.2162,278.6676,98.5621,261.5605,0.00012551,1.71e-05,0.0,0 STARLINK-4663,1 53724U 22107AA  23277.05400728  .00001710  00000-0  12551-3 0  9996,2 53724  53.2162 278.6676 0002065  98.5621 261.5605 15.08833561 59951,6917.9,95.438,541.194,538.337,0.0
53724.0,STARLINK-4663,PAYLOAD,2023-10-04 09:14:41,15.08840729,0.0001848,53.2148,277.1778,98.6394,261.4808,0.00020733,3.013e-05,0.0,0 STARLINK-4663,1 53724U 22107AA  23277.38520451  .00003013  00000-0  20733-3 0  9997,2 53724  53.2148 277.1778 0001848  98.6394 261.4808 15.08840729 60464,6917.878,95.438,541.022,538.465,0.0
53724.0,STARLINK-4663,PAYLOAD,2023-10-04 17:11:37,15.08843493,0.0001786,53.216,275.6929,91.0711,269.0486,0.00012531,1.707e-05,0.0,0 STARLINK-4663,1 53724U 22107AA  23277.71640228  .00001707  00000-0  12531-3 0  9994,2 53724  53.2160 275.6929 0001786  91.0711 269.0486 15.08843493 60052,6917.87,95.437,540.97,538.499,0.0
53724.0,STARLINK-4663,PAYLOAD,2023-10-05 09:05:28,15.08851245,0.0001702,53.2156,272.719,93.1005,267.0182,0.00027151,4.037e-05,0.0,0 STARLINK-4663,1 53724U 22107AA  23278.37879920  .00004037  00000-0  27151-3 0  9993,2 53724  53.2156 272.7190 0001702  93.1005 267.0182 15.08851245 60619,6917.846,95.437,540.888,538.534,0.0
53724.0,STARLINK-4663,PAYLOAD,2023-10-05 17:02:24,15.08840784,0.0001744,53.2152,271.2315,90.5757,269.5435,0.00021366,3.114e-05,0.0,0 STARLINK-4663,1 53724U 22107AA  23278.71000391  .00003114  00000-0  21366-3 0  9996,2 53724  53.2152 271.2315 0001744  90.5757 269.5435 15.08840784 60208,6917.878,95.438,540.949,538.537,0.0
53724.0,STARLINK-4663,PAYLOAD,2023-10-06 08:56:15,15.08842812,0.0001721,53.2158,268.2579,95.3293,264.7895,0.00016753,2.379e-05,0.0,0 STARLINK-4663,1 53724U 22107AA  23279.37240495  .00002379  00000-0  16753-3 0  9996,2 53724  53.2158 268.2579 0001721  95.3293 264.7895 15.08842812 60767,6917.872,95.437,540.927,538.546,0.0
53724.0,STARLINK-4663,PAYLOAD,2023-10-06 16:53:11,15.08836941,0.0001662,53.2157,266.7726,88.3336,271.7846,9.9683e-05,1.299e-05,0.0,0 STARLINK-4663,1 53724U 22107AA  23279.70360896  .00001299  00000-0  99683-4 0  9995,2 53724  53.2157 266.7726 0001662  88.3336 271.7846 15.08836941 60352,6917.89,95.438,540.904,538.605,0.0
53724.0,STARLINK-4663,PAYLOAD,2023-10-07 08:47:03,15.08844226,0.0001685,53.2162,263.7982,90.222,269.8965,0.00023116,3.393e-05,0.0,0 STARLINK-4663,1 53724U 22107AA  23280.36600766  .00003393  00000-0  23116-3 0  9996,2 53724  53.2162 263.7982 0001685  90.2220 269.8965 15.08844226 60915,6917.867,95.437,540.898,538.567,0.0
53724.0,STARLINK-4663,PAYLOAD,2023-10-08 02:16:17,15.08839527,0.0001406,53.2163,260.5244,88.5687,271.5466,0.00023356,3.431e-05,0.0,0 STARLINK-4663,1 53724U 22107AA  23281.09464989  .00003431  00000-0  23356-3 0  9991,2 53724  53.2163 260.5244 0001406  88.5687 271.5466 15.08839527 60565,6917.882,95.438,540.719,538.774,0.0
53724.0,STARLINK-4663,PAYLOAD,2023-10-08 03:51:40,15.08843329,0.0001651,53.2161,260.2306,94.3044,265.8137,0.00020231,2.933e-05,0.0,0 STARLINK-4663,1 53724U 22107AA  23281.16088839  .00002933  00000-0  20231-3 0  9990,2 53724  53.2161 260.2306 0001651  94.3044 265.8137 15.08843329 61032,6917.87,95.437,540.877,538.593,0.0
53724.0,STARLINK-4663,PAYLOAD,2023-10-09 08:28:36,15.0885438,0.0001379,53.2159,254.8774,90.1799,269.9352,0.00027465,4.088e-05,0.0,0 STARLINK-4663,1 53724U 22107AA  23282.35320145  .00004088  00000-0  27465-3 0  9990,2 53724  53.2159 254.8774 0001379  90.1799 269.9352 15.08854380 60756,6917.836,95.437,540.655,538.747,0.0
53724.0,STARLINK-4663,PAYLOAD,2023-10-09 14:50:09,15.08843276,0.0002057,53.2164,253.6874,80.869,279.2535,7.4533e-05,8.98e-06,0.0,0 STARLINK-4663,1 53724U 22107AA  23282.61816665  .00000898  00000-0  74533-4 0  9990,2 53724  53.2164 253.6874 0002057  80.8690 279.2535 15.08843276 60793,6917.87,95.437,541.158,538.312,0.0
53724.0,STARLINK-4663,PAYLOAD,2023-10-09 21:11:42,15.08844674,0.0002119,53.2158,252.4982,83.5934,276.53,0.00013959,1.934e-05,0.0,0 STARLINK-4663,1 53724U 22107AA  23282.88312689  .00001934  00000-0  13959-3 0  9992,2 53724  53.2158 252.4982 0002119  83.5934 276.5300 15.08844674 61292,6917.866,95.437,541.197,538.265,0.0
53724.0,STARLINK-4663,PAYLOAD,2023-10-10 08:19:23,15.08849044,0.0001374,53.2164,250.4166,97.0533,263.0616,0.00020039,2.903e-05,0.0,0 STARLINK-4663,1 53724U 22107AA  23283.34680247  .00002903  00000-0  20039-3 0  9996,2 53724  53.2164 250.4166 0001374  97.0533 263.0616 15.08849044 61363,6917.853,95.437,540.668,538.767,0.0
53724.0,STARLINK-4663,PAYLOAD,2023-10-10 14:40:56,15.08833152,0.0001517,53.2158,249.225,94.7487,265.3678,-5.4432e-05,-1.154e-05,0.0,0 STARLINK-4663,1 53724U 22107AA  23283.61176977 -.00001154  00000-0 -54432-4 0  9990,2 53724  53.2158 249.2250 0001517  94.7487 265.3678 15.08833152 60946,6917.901,95.438,540.816,538.717,0.0
53724.0,STARLINK-4663,PAYLOAD,2023-10-11 06:34:48,15.08838429,0.0001496,53.2167,246.2534,89.7719,270.3445,6.2199e-05,7.02e-06,0.0,0 STARLINK-4663,1 53724U 22107AA  23284.27417151  .00000702  00000-0  62199-4 0  9990,2 53724  53.2167 246.2534 0001496  89.7719 270.3445 15.08838429 61509,6917.885,95.438,540.785,538.715,0.0
53724.0,STARLINK-4663,PAYLOAD,2023-10-12 04:50:12,15.08841557,0.0001624,53.2172,242.0903,87.2943,272.8235,0.00017782,2.543e-05,0.0,0 STARLINK-4663,1 53724U 22107AA  23285.20153455  .00002543  00000-0  17782-3 0  9990,2 53724  53.2172 242.0903 0001624  87.2943 272.8235 15.08841557 61188,6917.876,95.437,540.864,538.617,0.0
53724.0,STARLINK-4663,PAYLOAD,2023-10-12 06:25:35,15.08844284,0.0001626,53.2175,241.7917,86.7372,273.3806,0.00025201,3.725e-05,0.0,0 STARLINK-4663,1 53724U 22107AA  23285.26777368  .00003725  00000-0  25201-3 0  9999,2 53724  53.2175 241.7917 0001626  86.7372 273.3806 15.08844284 61656,6917.867,95.437,540.857,538.607,0.0
53724.0,STARLINK-4663,PAYLOAD,2023-10-12 14:22:31,15.08836178,0.0001768,53.2168,240.306,89.7607,270.3587,0.00016189,2.289e-05,0.0,0 STARLINK-4663,1 53724U 22107AA  23285.59897826  .00002289  00000-0  16189-3 0  9996,2 53724  53.2168 240.3060 0001768  89.7607 270.3587 15.08836178 61244,6917.892,95.438,540.98,538.534,0.0
53724.0,STARLINK-4663,PAYLOAD,2023-10-13 04:40:59,15.08847344,0.0001439,53.2172,237.6301,90.4899,269.6258,0.00030039,4.497e-05,0.0,0 STARLINK-4663,1 53724U 22107AA  23286.19513389  .00004497  00000-0  30039-3 0  9995,2 53724  53.2172 237.6301 0001439  90.4899 269.6258 15.08847344 61336,6917.858,95.437,540.718,538.727,0.0
53724.0,STARLINK-4663,PAYLOAD,2023-10-13 14:13:18,15.08842541,0.0001638,53.2181,235.8454,84.8466,275.2713,0.00018062,2.588e-05,0.0,0 STARLINK-4663,1 53724U 22107AA  23286.59257625  .00002588  00000-0  18062-3 0  9998,2 53724  53.2181 235.8454 0001638  84.8466 275.2713 15.08842541 61853,6917.873,95.437,540.871,538.604,0.0
53724.0,STARLINK-4663,PAYLOAD,2023-10-14 02:56:23,15.08856993,0.0001426,53.2163,233.4655,96.7028,263.4126,0.00037324,5.66e-05,0.0,0 STARLINK-4663,1 53724U 22107AA  23287.12248998  .00005660  00000-0  37324-3 0  9997,2 53724  53.2163 233.4655 0001426  96.7028 263.4126 15.08856993 61472,6917.828,95.436,540.68,538.707,0.0
53724.0,STARLINK-4663,PAYLOAD,2023-10-14 14:04:05,15.08844846,0.0001689,53.2164,231.3855,93.1405,266.978,0.00016997,2.418e-05,0.0,0 STARLINK-4663,1 53724U 22107AA  23287.58617432  .00002418  00000-0  16997-3 0  9991,2 53724  53.2164 231.3855 0001689  93.1405 266.9780 15.08844846 62001,6917.866,95.437,540.899,538.562,0.0
